{"type": "FeatureCollection", "features": [ {"type": "Feature", "properties": {"norad_id": 30224, "name": "FENGYUN 1C DEB", "group": "fengyun-1c-debris", "lat": -50.48244646337886, "lon": -151.7833959312174, "alt_km": 912.4517613573198, "timestamp": "2025-12-26T21:25:53.285070+00:00", "meta": {"OBJECT_NAME": "FENGYUN 1C DEB", "OBJECT_ID": "1999-025WH", "EPOCH": "2025-12-26T08:31:26.156640", "MEAN_MOTION": 13.89878702, "ECCENTRICITY": 0.0110938, "INCLINATION": 99.4824, "RA_OF_ASC_NODE": 39.3589, "ARG_OF_PERICENTER": 306.6267, "MEAN_ANOMALY": 116.4216, "EPHEMERIS_TYPE": 0, "CLASSIFICATION_TYPE": "U", "NORAD_CAT_ID": 30224, "ELEMENT_SET_NO": 999, "REV_AT_EPOCH": 95930, "BSTAR": 0.00034674428, "MEAN_MOTION_DOT": 4.01e-06, "MEAN_MOTION_DDOT": 0}, "tle": {"line1": "1 30224U 99025WH  25360.35516385  .00000401  00000+0  34674-3 0  9999", "line2": "2 30224  99.4824  39.3589 0110938 306.6267 116.4216 13.89878702959308"}}, "geometry": {"type": "Point", "coordinates": [-151.7833959312174, -50.48244646337886]}}, {"type": "Feature", "properties": {"norad_id": 30225, "name": "FENGYUN 1C DEB", "group": "fengyun-1c-debris", "lat": -67.11277448817269, "lon": -173.9070572030076, "alt_km": 915.3887194411745, "timestamp": "2025-12-26T21:25:53.285080+00:00", "meta": {"OBJECT_NAME": "FENGYUN 1C DEB", "OBJECT_ID": "1999-025WJ", "EPOCH": "2025-12-24T19:53:04.274880", "MEAN_MOTION": 14.15192277, "ECCENTRICITY": 0.01001984, "INCLINATION": 98.6587, "RA_OF_ASC_NODE": 25.2479, "ARG_OF_PERICENTER": 51.6401, "MEAN_ANOMALY": 125.6348, "EPHEMERIS_TYPE": 0, "CLASSIFICATION_TYPE": "U", "NORAD_CAT_ID": 30225, "ELEMENT_SET_NO": 999, "REV_AT_EPOCH": 97707, "BSTAR": 0.0001525867, "MEAN_MOTION_DOT": 2.69e-06, "MEAN_MOTION_DDOT": 0}, "tle": {"line1": "1 30225U 99025WJ  25358.82852170  .00000269  00000+0  15259-3 0  9994", "line2": "2 30225  98.6587  25.2479 0100198  51.6401 125.6348 14.15192277977070"}}, "geometry": {"type": "Point", "coordinates": [-173.9070572030076, -67.11277448817269]}}, {"type": "Feature", "properties": {"norad_id": 30229, "name": "FENGYUN 1C DEB", "group": "fengyun-1c-debris", "lat": -75.54173508252876, "lon": 100.0820257567182, "alt_km": 691.3245033065969, "timestamp": "2025-12-26T21:25:53.285090+00:00", "meta": {"OBJECT_NAME": "FENGYUN 1C DEB", "OBJECT_ID": "1999-025WN", "EPOCH": "2025-12-26T03:49:10.598880", "MEAN_MOTION": 14.60764039, "ECCENTRICITY": 0.00368151, "INCLINATION": 99.061, "RA_OF_ASC_NODE": 61.0428, "ARG_OF_PERICENTER": 359.0084, "MEAN_ANOMALY": 25.9381, "EPHEMERIS_TYPE": 0, "CLASSIFICATION_TYPE": "U", "NORAD_CAT_ID": 30229, "ELEMENT_SET_NO": 999, "REV_AT_EPOCH": 99122, "BSTAR": 0.0016862408, "MEAN_MOTION_DOT": 8.259e-05, "MEAN_MOTION_DDOT": 0}, "tle": {"line1": "1 30229U 99025WN  25360.15915045  .00008259  00000+0  16862-2 0  9995", "line2": "2 30229  99.0610  61.0428 0036815 359.0084  25.9381 14.60764039991227"}}, "geometry": {"type": "Point", "coordinates": [100.0820257567182, -75.54173508252876]}}, {"type": "Feature", "properties": {"norad_id": 30231, "name": "FENGYUN 1C DEB", "group": "fengyun-1c-debris", "lat": 6.0752630978075715, "lon": -133.66497468479315, "alt_km": 947.8564554163486, "timestamp": "2025-12-26T21:25:53.285101+00:00", "meta": {"OBJECT_NAME": "FENGYUN 1C DEB", "OBJECT_ID": "1999-025WQ", "EPOCH": "2025-12-26T02:09:07.641792", "MEAN_MOTION": 14.11671, "ECCENTRICITY": 0.01278102, "INCLINATION": 98.8038, "RA_OF_ASC_NODE": 44.6016, "ARG_OF_PERICENTER": 351.3117, "MEAN_ANOMALY": 62.4078, "EPHEMERIS_TYPE": 0, "CLASSIFICATION_TYPE": "U", "NORAD_CAT_ID": 30231, "ELEMENT_SET_NO": 999, "REV_AT_EPOCH": 97208, "BSTAR": 0.00045851471, "MEAN_MOTION_DOT": 8.57e-06, "MEAN_MOTION_DDOT": 0}, "tle": {"line1": "1 30231U 99025WQ  25360.08967178  .00000857  00000+0  45851-3 0  9991", "line2": "2 30231  98.8038  44.6016 0127810 351.3117  62.4078 14.11671000972082"}}, "geometry": {"type": "Point", "coordinates": [-133.66497468479315, 6.0752630978075715]}}, {"type": "Feature", "properties": {"norad_id": 30232, "name": "FENGYUN 1C DEB", "group": "fengyun-1c-debris", "lat": -57.39966447842059, "lon": 7.9891679187492874, "alt_km": 650.7701300865756, "timestamp": "2025-12-26T21:25:53.285111+00:00", "meta": {"OBJECT_NAME": "FENGYUN 1C DEB", "OBJECT_ID": "1999-025WR", "EPOCH": "2025-12-26T12:15:58.451616", "MEAN_MOTION": 14.63708116, "ECCENTRICITY": 0.01351124, "INCLINATION": 98.6924, "RA_OF_ASC_NODE": 201.4268, "ARG_OF_PERICENTER": 307.1274, "MEAN_ANOMALY": 81.5823, "EPHEMERIS_TYPE": 0, "CLASSIFICATION_TYPE": "U", "NORAD_CAT_ID": 30232, "ELEMENT_SET_NO": 999, "REV_AT_EPOCH": 99953, "BSTAR": 0.00085446319, "MEAN_MOTION_DOT": 5.02e-05, "MEAN_MOTION_DDOT": 0}, "tle": {"line1": "1 30232U 99025WR  25360.51109319  .00005020  00000+0  85446-3 0  9996", "line2": "2 30232  98.6924 201.4268 0135112 307.1274  81.5823 14.63708116999539"}}, "geometry": {"type": "Point", "coordinates": [7.9891679187492874, -57.39966447842059]}}, {"type": "Feature", "properties": {"norad_id": 30234, "name": "FENGYUN 1C DEB", "group": "fengyun-1c-debris", "lat": -75.89502162878448, "lon": 48.4576026289752, "alt_km": 862.3117855646824, "timestamp": "2025-12-26T21:25:53.285121+00:00", "meta": {"OBJECT_NAME": "FENGYUN 1C DEB", "OBJECT_ID": "1999-025WT", "EPOCH": "2025-12-26T12:14:40.691616", "MEAN_MOTION": 14.16883058, "ECCENTRICITY": 0.00666022, "INCLINATION": 98.6335, "RA_OF_ASC_NODE": 10.8833, "ARG_OF_PERICENTER": 36.0787, "MEAN_ANOMALY": 94.4381, "EPHEMERIS_TYPE": 0, "CLASSIFICATION_TYPE": "U", "NORAD_CAT_ID": 30234, "ELEMENT_SET_NO": 999, "REV_AT_EPOCH": 97651, "BSTAR": 0.00034039865, "MEAN_MOTION_DOT": 6.55e-06, "MEAN_MOTION_DDOT": 0}, "tle": {"line1": "1 30234U 99025WT  25360.51019319  .00000655  00000+0  34040-3 0  9991", "line2": "2 30234  98.6335  10.8833 0066602  36.0787  94.4381 14.16883058976513"}}, "geometry": {"type": "Point", "coordinates": [48.4576026289752, -75.89502162878448]}}, {"type": "Feature", "properties": {"norad_id": 30235, "name": "FENGYUN 1C DEB", "group": "fengyun-1c-debris", "lat": -11.28602186401223, "lon": -163.11188299610157, "alt_km": 757.1198294589021, "timestamp": "2025-12-26T21:25:53.285132+00:00", "meta": {"OBJECT_NAME": "FENGYUN 1C DEB", "OBJECT_ID": "1999-025WU", "EPOCH": "2025-12-26T14:16:31.055232", "MEAN_MOTION": 14.08795541, "ECCENTRICITY": 0.01538828, "INCLINATION": 98.7488, "RA_OF_ASC_NODE": 18.3597, "ARG_OF_PERICENTER": 199.2711, "MEAN_ANOMALY": 280.8522, "EPHEMERIS_TYPE": 0, "CLASSIFICATION_TYPE": "U", "NORAD_CAT_ID": 30235, "ELEMENT_SET_NO": 999, "REV_AT_EPOCH": 97088, "BSTAR": 0.00034375274, "MEAN_MOTION_DOT": 6.19e-06, "MEAN_MOTION_DDOT": 0}, "tle": {"line1": "1 30235U 99025WU  25360.59480388  .00000619  00000+0  34375-3 0  9999", "line2": "2 30235  98.7488  18.3597 0153882 199.2711 280.8522 14.08795541970882"}}, "geometry": {"type": "Point", "coordinates": [-163.11188299610157, -11.28602186401223]}}, {"type": "Feature", "properties": {"norad_id": 30237, "name": "FENGYUN 1C DEB", "group": "fengyun-1c-debris", "lat": -35.984209079879776, "lon": 110.57231936487928, "alt_km": 755.9706736369571, "timestamp": "2025-12-26T21:25:53.285142+00:00", "meta": {"OBJECT_NAME": "FENGYUN 1C DEB", "OBJECT_ID": "1999-025WW", "EPOCH": "2025-12-26T13:21:00.928800", "MEAN_MOTION": 14.41086391, "ECCENTRICITY": 0.00151627, "INCLINATION": 98.8249, "RA_OF_ASC_NODE": 103.7478, "ARG_OF_PERICENTER": 263.24, "MEAN_ANOMALY": 114.3629, "EPHEMERIS_TYPE": 0, "CLASSIFICATION_TYPE": "U", "NORAD_CAT_ID": 30237, "ELEMENT_SET_NO": 999, "REV_AT_EPOCH": 97897, "BSTAR": 0.0025196758, "MEAN_MOTION_DOT": 8.086e-05, "MEAN_MOTION_DDOT": 0}, "tle": {"line1": "1 30237U 99025WW  25360.55626075  .00008086  00000+0  25197-2 0  9999", "line2": "2 30237  98.8249 103.7478 0015162 263.2400 114.3629 14.41086391978972"}}, "geometry": {"type": "Point", "coordinates": [110.57231936487928, -35.984209079879776]}}, {"type": "Feature", "properties": {"norad_id": 30239, "name": "FENGYUN 1C DEB", "group": "fengyun-1c-debris", "lat": -50.50643990987846, "lon": -47.11565047682978, "alt_km": 2670.0130838814193, "timestamp": "2025-12-26T21:25:53.285152+00:00", "meta": {"OBJECT_NAME": "FENGYUN 1C DEB", "OBJECT_ID": "1999-025WY", "EPOCH": "2025-12-25T08:09:34.826688", "MEAN_MOTION": 11.38313198, "ECCENTRICITY": 0.1353739, "INCLINATION": 99.5606, "RA_OF_ASC_NODE": 143.6441, "ARG_OF_PERICENTER": 7.9122, "MEAN_ANOMALY": 354.1101, "EPHEMERIS_TYPE": 0, "CLASSIFICATION_TYPE": "U", "NORAD_CAT_ID": 30239, "ELEMENT_SET_NO": 999, "REV_AT_EPOCH": 54678, "BSTAR": 0.027272, "MEAN_MOTION_DOT": 9.342e-05, "MEAN_MOTION_DDOT": 0}, "tle": {"line1": "1 30239U 99025WY  25359.33998642  .00009342  00000+0  27272-1 0  9998", "line2": "2 30239  99.5606 143.6441 1353739   7.9122 354.1101 11.38313198546782"}}, "geometry": {"type": "Point", "coordinates": [-47.11565047682978, -50.50643990987846]}}, {"type": "Feature", "properties": {"norad_id": 30241, "name": "FENGYUN 1C DEB", "group": "fengyun-1c-debris", "lat": 79.53553215685326, "lon": 14.759303526817156, "alt_km": 789.1999878560546, "timestamp": "2025-12-26T21:25:53.285163+00:00", "meta": {"OBJECT_NAME": "FENGYUN 1C DEB", "OBJECT_ID": "1999-025XA", "EPOCH": "2025-12-26T07:30:10.135584", "MEAN_MOTION": 14.09559789, "ECCENTRICITY": 0.01464808, "INCLINATION": 99.1491, "RA_OF_ASC_NODE": 133.4153, "ARG_OF_PERICENTER": 43.3309, "MEAN_ANOMALY": 347.0435, "EPHEMERIS_TYPE": 0, "CLASSIFICATION_TYPE": "U", "NORAD_CAT_ID": 30241, "ELEMENT_SET_NO": 999, "REV_AT_EPOCH": 97103, "BSTAR": 0.00028520926, "MEAN_MOTION_DOT": 5.06e-06, "MEAN_MOTION_DDOT": 0}, "tle": {"line1": "1 30241U 99025XA  25360.31261731  .00000506  00000+0  28521-3 0  9996", "line2": "2 30241  99.1491 133.4153 0146480  43.3309 347.0435 14.09559789971033"}}, "geometry": {"type": "Point", "coordinates": [14.759303526817156, 79.53553215685326]}}]}